{
  "norad_id": 57629,
  "name": "HEAD-3D",
  "history": [
    {
      "epoch": "2026-03-28T21:32:30.391008",
      "apogee_km": 689.1547084437325,
      "perigee_km": 679.2214070035425,
      "latitude_deg": 44.90504364279188,
      "longitude_deg": 29.06710111978464,
      "semi_major_axis_km": 7062.325057723637,
      "eccentricity": 0.00070326,
      "inclination_deg": 45.005,
      "raan_deg": 330.8196,
      "arg_perigee_deg": 214.0741,
      "mean_anomaly_deg": 145.9667,
      "mean_motion_rev_day": 14.62787389
    },
    {
      "epoch": "2026-03-29T04:05:53.052288",
      "apogee_km": 689.1651231577116,
      "perigee_km": 679.2058359970115,
      "latitude_deg": -17.864532622370938,
      "longitude_deg": 55.292280320078135,
      "semi_major_axis_km": 7062.322479577361,
      "eccentricity": 0.0007051,
      "inclination_deg": 45.005,
      "raan_deg": 329.4718,
      "arg_perigee_deg": 215.3387,
      "mean_anomaly_deg": 144.7005,
      "mean_motion_rev_day": 14.6278819
    }
  ]
}